0 SATCOM 3 DEB
1 29003U 79101F   13283.25666876 -.00000134  00000-0  10000-3 0  2586
2 29003 007.8158 141.9174 4849089 019.4039 354.2328 01.83299301 51447
0 SATCOM 3 DEB
1 29003U 79101F   13283.25669880 -.00000044  00000-0  10000-3 0  2595
2 29003 007.8198 141.8519 4847624 019.4729 354.2364 01.83296666 51443
0 SATCOM 3 DEB
1 29003U 79101F   13285.43869371 -.00000140  00000-0  10000-3 0  2591
2 29003 007.8177 141.6977 4848858 019.8319 354.0741 01.83299195 51486
0 SATCOM 3 DEB
1 29003U 79101F   13285.98422267 -.00000137  00000-0  10000-3 0  2608
2 29003 007.8181 141.6433 4848731 019.9405 354.0446 01.83299103 51497
0 SATCOM 3 DEB
1 29003U 79101F   13291.98494368 -.00000103  00000-0  10000-3 0  2610
2 29003 007.8220 141.0400 4846804 021.1024 353.7048 01.83298597 51603
0 SATCOM 3 DEB
1 29003U 79101F   13293.07599742 -.00000114  00000-0  10000-3 0  2627
2 29003 007.8239 140.9429 4844727 021.3094 353.6339 01.83298944 51623
0 SATCOM 3 DEB
1 29003U 79101F   13295.25803430 -.00000138  00000-0  10000-3 0  2638
2 29003 007.8254 140.7261 4843403 021.7291 353.4830 01.83299126 51666
